{
  "type": "FeatureCollection",
  "features": [
    {
      "type": "Feature",
      "properties": {
        "norad_id": 37535,
        "name": "COSMOS 2251 DEB",
        "group": "cosmos-2251-debris",
        "lat": -67.09134939186116,
        "lon": -90.86297528371514,
        "alt_km": 698.2739370027284,
        "timestamp": "2025-12-26T22:28:06.183423+00:00",
        "meta_object_name": "COSMOS 2251 DEB",
        "meta_object_id": "1993-036BNQ",
        "meta_epoch": "2025-12-26T13:46:09.292224",
        "meta_mean_motion": 14.58543471,
        "meta_eccentricity": 0.0026959,
        "meta_inclination": 74.0235,
        "meta_ra_of_asc_node": 47.145,
        "meta_arg_of_pericenter": 183.873,
        "meta_mean_anomaly": 326.7409,
        "meta_ephemeris_type": 0,
        "meta_classification_type": "U",
        "meta_norad_cat_id": 37535,
        "meta_element_set_no": 999,
        "meta_rev_at_epoch": 85526,
        "meta_bstar": 0.00067016,
        "meta_mean_motion_dot": 3.103e-05,
        "meta_mean_motion_ddot": 0,
        "tle_line1": "1 37535U 93036BNQ 25360.57371866  .00003103  00000+0  67016-3 0  9992",
        "tle_line2": "2 37535  74.0235  47.1450 0026959 183.8730 326.7409 14.58543471855267"
      },
      "geometry": {
        "type": "Point",
        "coordinates": [
          -90.86297528371514,
          -67.09134939186116
        ]
      }
    },
    {
      "type": "Feature",
      "properties": {
        "norad_id": 37537,
        "name": "COSMOS 2251 DEB",
        "group": "cosmos-2251-debris",
        "lat": 73.85425572488737,
        "lon": -23.070390090548784,
        "alt_km": 750.7793309931149,
        "timestamp": "2025-12-26T22:28:06.183434+00:00",
        "meta_object_name": "COSMOS 2251 DEB",
        "meta_object_id": "1993-036BNS",
        "meta_epoch": "2025-12-23T00:30:43.344864",
        "meta_mean_motion": 14.37504728,
        "meta_eccentricity": 0.00507516,
        "meta_inclination": 74.0118,
        "meta_ra_of_asc_node": 246.178,
        "meta_arg_of_pericenter": 23.6925,
        "meta_mean_anomaly": 336.6549,
        "meta_ephemeris_type": 0,
        "meta_classification_type": "U",
        "meta_norad_cat_id": 37537,
        "meta_element_set_no": 999,
        "meta_rev_at_epoch": 85181,
        "meta_bstar": 0.00019410826,
        "meta_mean_motion_dot": 5.64e-06,
        "meta_mean_motion_ddot": 0,
        "tle_line1": "1 37537U 93036BNS 25357.02133501  .00000564  00000+0  19411-3 0  9996",
        "tle_line2": "2 37537  74.0118 246.1780 0050751  23.6925 336.6549 14.37504728851811"
      },
      "geometry": {
        "type": "Point",
        "coordinates": [
          -23.070390090548784,
          73.85425572488737
        ]
      }
    },
    {
      "type": "Feature",
      "properties": {
        "norad_id": 37546,
        "name": "COSMOS 2251 DEB",
        "group": "cosmos-2251-debris",
        "lat": -38.13287012669725,
        "lon": -97.0172166387514,
        "alt_km": 635.6898131212183,
        "timestamp": "2025-12-26T22:28:06.183444+00:00",
        "meta_object_name": "COSMOS 2251 DEB",
        "meta_object_id": "1993-036BPB",
        "meta_epoch": "2025-12-25T04:56:56.302944",
        "meta_mean_motion": 14.80966305,
        "meta_eccentricity": 0.0005402,
        "meta_inclination": 74.0212,
        "meta_ra_of_asc_node": 73.3979,
        "meta_arg_of_pericenter": 64.6896,
        "meta_mean_anomaly": 295.4839,
        "meta_ephemeris_type": 0,
        "meta_classification_type": "U",
        "meta_norad_cat_id": 37546,
        "meta_element_set_no": 999,
        "meta_rev_at_epoch": 66072,
        "meta_bstar": 0.0024894,
        "meta_mean_motion_dot": 0.000193,
        "meta_mean_motion_ddot": 0,
        "tle_line1": "1 37546U 93036BPB 25359.20620721  .00019300  00000+0  24894-2 0  9991",
        "tle_line2": "2 37546  74.0212  73.3979 0005402  64.6896 295.4839 14.80966305660724"
      },
      "geometry": {
        "type": "Point",
        "coordinates": [
          -97.0172166387514,
          -38.13287012669725
        ]
      }
    },
    {
      "type": "Feature",
      "properties": {
        "norad_id": 37959,
        "name": "COSMOS 2251 DEB",
        "group": "cosmos-2251-debris",
        "lat": -18.897935070520777,
        "lon": 24.256919745879,
        "alt_km": 743.5924692266881,
        "timestamp": "2025-12-26T22:28:06.183454+00:00",
        "meta_object_name": "COSMOS 2251 DEB",
        "meta_object_id": "1993-036BPJ",
        "meta_epoch": "2025-12-22T13:53:21.860736",
        "meta_mean_motion": 14.58199594,
        "meta_eccentricity": 0.00571783,
        "meta_inclination": 74.0084,
        "meta_ra_of_asc_node": 38.1929,
        "meta_arg_of_pericenter": 178.962,
        "meta_mean_anomaly": 335.9914,
        "meta_ephemeris_type": 0,
        "meta_classification_type": "U",
        "meta_norad_cat_id": 37959,
        "meta_element_set_no": 999,
        "meta_rev_at_epoch": 80270,
        "meta_bstar": 0.00056222313,
        "meta_mean_motion_dot": 2.624e-05,
        "meta_mean_motion_ddot": 0,
        "tle_line1": "1 37959U 93036BPJ 25356.57872524  .00002624  00000+0  56222-3 0  9998",
        "tle_line2": "2 37959  74.0084  38.1929 0057178 178.9620 335.9914 14.58199594802707"
      },
      "geometry": {
        "type": "Point",
        "coordinates": [
          24.256919745879,
          -18.897935070520777
        ]
      }
    },
    {
      "type": "Feature",
      "properties": {
        "norad_id": 37960,
        "name": "COSMOS 2251 DEB",
        "group": "cosmos-2251-debris",
        "lat": 29.379222316213877,
        "lon": -27.24528327206125,
        "alt_km": 705.1598847348969,
        "timestamp": "2025-12-26T22:28:06.183464+00:00",
        "meta_object_name": "COSMOS 2251 DEB",
        "meta_object_id": "1993-036BPK",
        "meta_epoch": "2025-12-23T05:04:36.493536",
        "meta_mean_motion": 14.07887566,
        "meta_eccentricity": 0.02481157,
        "meta_inclination": 74.0591,
        "meta_ra_of_asc_node": 168.5402,
        "meta_arg_of_pericenter": 184.7073,
        "meta_mean_anomaly": 175.1734,
        "meta_ephemeris_type": 0,
        "meta_classification_type": "U",
        "meta_norad_cat_id": 37960,
        "meta_element_set_no": 999,
        "meta_rev_at_epoch": 77553,
        "meta_bstar": 0.0007466601,
        "meta_mean_motion_dot": 1.655e-05,
        "meta_mean_motion_ddot": 0,
        "tle_line1": "1 37960U 93036BPK 25357.21153349  .00001655  00000+0  74666-3 0  9994",
        "tle_line2": "2 37960  74.0591 168.5402 0248115 184.7073 175.1734 14.07887566775537"
      },
      "geometry": {
        "type": "Point",
        "coordinates": [
          -27.24528327206125,
          29.379222316213877
        ]
      }
    },
    {
      "type": "Feature",
      "properties": {
        "norad_id": 37961,
        "name": "COSMOS 2251 DEB",
        "group": "cosmos-2251-debris",
        "lat": 37.366899635893276,
        "lon": 122.7399735161717,
        "alt_km": 720.2682050035401,
        "timestamp": "2025-12-26T22:28:06.183475+00:00",
        "meta_object_name": "COSMOS 2251 DEB",
        "meta_object_id": "1993-036BPL",
        "meta_epoch": "2025-12-13T03:18:27.462240",
        "meta_mean_motion": 14.57979799,
        "meta_eccentricity": 0.00406759,
        "meta_inclination": 74.0407,
        "meta_ra_of_asc_node": 136.3488,
        "meta_arg_of_pericenter": 216.8805,
        "meta_mean_anomaly": 142.9561,
        "meta_ephemeris_type": 0,
        "meta_classification_type": "U",
        "meta_norad_cat_id": 37961,
        "meta_element_set_no": 999,
        "meta_rev_at_epoch": 80071,
        "meta_bstar": 0.001729191,
        "meta_mean_motion_dot": 8.011e-05,
        "meta_mean_motion_ddot": 0,
        "tle_line1": "1 37961U 93036BPL 25347.13781785  .00008011  00000+0  17292-2 0  9990",
        "tle_line2": "2 37961  74.0407 136.3488 0040675 216.8805 142.9561 14.57979799800716"
      },
      "geometry": {
        "type": "Point",
        "coordinates": [
          122.7399735161717,
          37.366899635893276
        ]
      }
    },
    {
      "type": "Feature",
      "properties": {
        "norad_id": 37966,
        "name": "COSMOS 2251 DEB",
        "group": "cosmos-2251-debris",
        "lat": 73.71683839891426,
        "lon": -58.66653989519045,
        "alt_km": 509.5906447802836,
        "timestamp": "2025-12-26T22:28:06.183485+00:00",
        "meta_object_name": "COSMOS 2251 DEB",
        "meta_object_id": "1993-036BPR",
        "meta_epoch": "2025-12-13T08:51:38.421216",
        "meta_mean_motion": 15.12745257,
        "meta_eccentricity": 0.0008827,
        "meta_inclination": 73.9781,
        "meta_ra_of_asc_node": 229.2381,
        "meta_arg_of_pericenter": 105.5668,
        "meta_mean_anomaly": 254.6501,
        "meta_ephemeris_type": 0,
        "meta_classification_type": "U",
        "meta_norad_cat_id": 37966,
        "meta_element_set_no": 999,
        "meta_rev_at_epoch": 85352,
        "meta_bstar": 0.0033929269,
        "meta_mean_motion_dot": 0.00060007,
        "meta_mean_motion_ddot": 0,
        "tle_line1": "1 37966U 93036BPR 25347.36919469  .00060007  00000+0  33929-2 0  9990",
        "tle_line2": "2 37966  73.9781 229.2381 0008827 105.5668 254.6501 15.12745257853526"
      },
      "geometry": {
        "type": "Point",
        "coordinates": [
          -58.66653989519045,
          73.71683839891426
        ]
      }
    }
  ]
}